[
    {
        "CCSDS_OMM_VERS": "3.0",
        "COMMENT": "GENERATED VIA SPACE-TRACK.ORG API",
        "CREATION_DATE": "2025-03-02T18:08:23",
        "ORIGINATOR": "18 SPCS",
        "OBJECT_NAME": "BEIDOU 11",
        "OBJECT_ID": "2012-008A",
        "CENTER_NAME": "EARTH",
        "REF_FRAME": "TEME",
        "TIME_SYSTEM": "UTC",
        "MEAN_ELEMENT_THEORY": "SGP4",
        "EPOCH": "2025-03-02T11:14:38.843232",
        "MEAN_MOTION": "1.00268753",
        "ECCENTRICITY": "0.00133410",
        "INCLINATION": "2.3966",
        "RA_OF_ASC_NODE": "71.2458",
        "ARG_OF_PERICENTER": "249.2324",
        "MEAN_ANOMALY": "67.3889",
        "EPHEMERIS_TYPE": "0",
        "CLASSIFICATION_TYPE": "U",
        "NORAD_CAT_ID": "38091",
        "ELEMENT_SET_NO": "999",
        "REV_AT_EPOCH": "4763",
        "BSTAR": "0.00000000000000",
        "MEAN_MOTION_DOT": "0.00000055",
        "MEAN_MOTION_DDOT": "0.0000000000000",
        "SEMIMAJOR_AXIS": "42165.582",
        "PERIOD": "1436.140",
        "APOAPSIS": "35843.700",
        "PERIAPSIS": "35731.194",
        "OBJECT_TYPE": "PAYLOAD",
        "RCS_SIZE": "LARGE",
        "COUNTRY_CODE": "PRC",
        "LAUNCH_DATE": "2012-02-24",
        "SITE": "XSC",
        "DECAY_DATE": null,
        "FILE": "4657142",
        "GP_ID": "282083424",
        "TLE_LINE0": "0 BEIDOU 11",
        "TLE_LINE1": "1 38091U 12008A   25061.46850513  .00000055  00000-0  00000-0 0  9998",
        "TLE_LINE2": "2 38091   2.3966  71.2458 0013341 249.2324  67.3889  1.00268753 47637"
    }
]